QIANFAN-89              
1 63175U 25046S   25203.63535400  .00000099  00000+0  13485-3 0  9998
2 63175  88.9851 334.7765 0017007 172.9876 187.1517 13.50960463 28088
QIANFAN-90              
1 63176U 25046T   25203.59006965  .00000127  00000+0  17827-3 0  9999
2 63176  88.9851 334.7533 0014027 169.9922 190.1511 13.50958869 28095
